TWILIGHT V              
1 67382U 26004V   26026.47537932  .00005121  00000+0  56375-3 0  9991
2 67382  97.8002  27.3992 0003601 212.3386 147.7610 14.87994893  2214
TWILIGHT W              
1 67383U 26004W   26026.47812226  .00005538  00000+0  61323-3 0  9995
2 67383  97.7979  27.3934 0003982 231.9446 128.1412 14.87719106  2214
TWILIGHT X              
1 67384U 26004X   26026.47442659  .00010197  00000+0  11110-2 0  9990
2 67384  97.7977  27.3982 0003001 212.9596 147.1434 14.88174029  2218
TWILIGHT Y              
1 67385U 26004Y   26026.47358192  .00009602  00000+0  10445-2 0  9998
2 67385  97.7989  27.4003 0002921 205.6706 154.4366 14.88255388  2212
TWILIGHT Z              
1 67386U 26004Z   26026.47220806  .00004418  00000+0  48354-3 0  9990
2 67386  97.7969  27.4013 0001808 202.6317 157.4820 14.88300940  2213
TWILIGHT AA             
1 67387U 26004AA  26026.46985720  .00006447  00000+0  69789-3 0  9992
2 67387  97.8020  27.4065 0003001 168.5518 191.5768 14.88585790  2218
TWILIGHT AB             
1 67388U 26004AB  26026.46859604  .00006293  00000+0  67963-3 0  9995
2 67388  97.8009  27.4076 0002646 154.2709 205.8640 14.88688788  2215
TWILIGHT AC             
1 67389U 26004AC  26026.45677265  .00008478  00000+0  43194-3 0  9993
2 67389  97.4569  27.5868 0005252 104.7310 255.4506 15.17012896  2257
CONNECTA IOT-16         
1 67390U 26004AD  26026.45628197  .00007554  00000+0  38510-3 0  9995
2 67390  97.4572  27.5888 0005497 102.7628 257.4220 15.17027205  2251
TWILIGHT AE             
1 67391U 26004AE  26026.38842550  .00014503  00000+0  73170-3 0  9992
2 67391  97.4522  27.5163 0006844  98.4548 261.7462 15.17207136  2240
TWILIGHT AF             
1 67392U 26004AF  26026.45230570  .00017725  00000+0  87528-3 0  9995
2 67392  97.4498  27.5786 0007552 102.2068 258.0012 15.17911197  2252
TWILIGHT AG             
1 67393U 26004AG  26026.25351524  .00017769  00000+0  87894-3 0  9991
2 67393  97.4527  27.3923 0007648 106.4472 253.7603 15.17850740  2229
