CCSDS_OMM_VERS = 2.0
CREATION_DATE  = 
ORIGINATOR     = 

OBJECT_NAME    = TWILIGHT V
OBJECT_ID      = 2026-004V
CENTER_NAME    = EARTH
REF_FRAME      = TEME
TIME_SYSTEM    = UTC
MEAN_ELEMENT_THEORY = SGP/SGP4

EPOCH          = 2026-01-26T11:24:32.773248
MEAN_MOTION    = 14.87994893
ECCENTRICITY   = .0003601
INCLINATION    = 97.8002
RA_OF_ASC_NODE = 27.3992
ARG_OF_PERICENTER = 212.3386
MEAN_ANOMALY   = 147.7610

EPHEMERIS_TYPE = 0
CLASSIFICATION_TYPE = U
NORAD_CAT_ID   = 67382
ELEMENT_SET_NO = 999
REV_AT_EPOCH   = 221
BSTAR          = .56375E-3
MEAN_MOTION_DOT = .5121E-4
MEAN_MOTION_DDOT = 0

CCSDS_OMM_VERS = 2.0
CREATION_DATE  = 
ORIGINATOR     = 

OBJECT_NAME    = TWILIGHT W
OBJECT_ID      = 2026-004W
CENTER_NAME    = EARTH
REF_FRAME      = TEME
TIME_SYSTEM    = UTC
MEAN_ELEMENT_THEORY = SGP/SGP4

EPOCH          = 2026-01-26T11:28:29.763264
MEAN_MOTION    = 14.87719106
ECCENTRICITY   = .0003982
INCLINATION    = 97.7979
RA_OF_ASC_NODE = 27.3934
ARG_OF_PERICENTER = 231.9446
MEAN_ANOMALY   = 128.1412

EPHEMERIS_TYPE = 0
CLASSIFICATION_TYPE = U
NORAD_CAT_ID   = 67383
ELEMENT_SET_NO = 999
REV_AT_EPOCH   = 221
BSTAR          = .61323E-3
MEAN_MOTION_DOT = .5538E-4
MEAN_MOTION_DDOT = 0

CCSDS_OMM_VERS = 2.0
CREATION_DATE  = 
ORIGINATOR     = 

OBJECT_NAME    = TWILIGHT X
OBJECT_ID      = 2026-004X
CENTER_NAME    = EARTH
REF_FRAME      = TEME
TIME_SYSTEM    = UTC
MEAN_ELEMENT_THEORY = SGP/SGP4

EPOCH          = 2026-01-26T11:23:10.457376
MEAN_MOTION    = 14.88174029
ECCENTRICITY   = .0003001
INCLINATION    = 97.7977
RA_OF_ASC_NODE = 27.3982
ARG_OF_PERICENTER = 212.9596
MEAN_ANOMALY   = 147.1434

EPHEMERIS_TYPE = 0
CLASSIFICATION_TYPE = U
NORAD_CAT_ID   = 67384
ELEMENT_SET_NO = 999
REV_AT_EPOCH   = 221
BSTAR          = .1111E-2
MEAN_MOTION_DOT = .10197E-3
MEAN_MOTION_DDOT = 0

CCSDS_OMM_VERS = 2.0
CREATION_DATE  = 
ORIGINATOR     = 

OBJECT_NAME    = TWILIGHT Y
OBJECT_ID      = 2026-004Y
CENTER_NAME    = EARTH
REF_FRAME      = TEME
TIME_SYSTEM    = UTC
MEAN_ELEMENT_THEORY = SGP/SGP4

EPOCH          = 2026-01-26T11:21:57.477888
MEAN_MOTION    = 14.88255388
ECCENTRICITY   = .0002921
INCLINATION    = 97.7989
RA_OF_ASC_NODE = 27.4003
ARG_OF_PERICENTER = 205.6706
MEAN_ANOMALY   = 154.4366

EPHEMERIS_TYPE = 0
CLASSIFICATION_TYPE = U
NORAD_CAT_ID   = 67385
ELEMENT_SET_NO = 999
REV_AT_EPOCH   = 221
BSTAR          = .10445E-2
MEAN_MOTION_DOT = .9602E-4
MEAN_MOTION_DDOT = 0

CCSDS_OMM_VERS = 2.0
CREATION_DATE  = 
ORIGINATOR     = 

OBJECT_NAME    = TWILIGHT Z
OBJECT_ID      = 2026-004Z
CENTER_NAME    = EARTH
REF_FRAME      = TEME
TIME_SYSTEM    = UTC
MEAN_ELEMENT_THEORY = SGP/SGP4

EPOCH          = 2026-01-26T11:19:58.776384
MEAN_MOTION    = 14.88300940
ECCENTRICITY   = .0001808
INCLINATION    = 97.7969
RA_OF_ASC_NODE = 27.4013
ARG_OF_PERICENTER = 202.6317
MEAN_ANOMALY   = 157.4820

EPHEMERIS_TYPE = 0
CLASSIFICATION_TYPE = U
NORAD_CAT_ID   = 67386
ELEMENT_SET_NO = 999
REV_AT_EPOCH   = 221
BSTAR          = .48354E-3
MEAN_MOTION_DOT = .4418E-4
MEAN_MOTION_DDOT = 0

CCSDS_OMM_VERS = 2.0
CREATION_DATE  = 
ORIGINATOR     = 

OBJECT_NAME    = TWILIGHT AA
OBJECT_ID      = 2026-004AA
CENTER_NAME    = EARTH
REF_FRAME      = TEME
TIME_SYSTEM    = UTC
MEAN_ELEMENT_THEORY = SGP/SGP4

EPOCH          = 2026-01-26T11:16:35.662080
MEAN_MOTION    = 14.88585790
ECCENTRICITY   = .0003001
INCLINATION    = 97.8020
RA_OF_ASC_NODE = 27.4065
ARG_OF_PERICENTER = 168.5518
MEAN_ANOMALY   = 191.5768

EPHEMERIS_TYPE = 0
CLASSIFICATION_TYPE = U
NORAD_CAT_ID   = 67387
ELEMENT_SET_NO = 999
REV_AT_EPOCH   = 221
BSTAR          = .69789E-3
MEAN_MOTION_DOT = .6447E-4
MEAN_MOTION_DDOT = 0

CCSDS_OMM_VERS = 2.0
CREATION_DATE  = 
ORIGINATOR     = 

OBJECT_NAME    = TWILIGHT AB
OBJECT_ID      = 2026-004AB
CENTER_NAME    = EARTH
REF_FRAME      = TEME
TIME_SYSTEM    = UTC
MEAN_ELEMENT_THEORY = SGP/SGP4

EPOCH          = 2026-01-26T11:14:46.697856
MEAN_MOTION    = 14.88688788
ECCENTRICITY   = .0002646
INCLINATION    = 97.8009
RA_OF_ASC_NODE = 27.4076
ARG_OF_PERICENTER = 154.2709
MEAN_ANOMALY   = 205.8640

EPHEMERIS_TYPE = 0
CLASSIFICATION_TYPE = U
NORAD_CAT_ID   = 67388
ELEMENT_SET_NO = 999
REV_AT_EPOCH   = 221
BSTAR          = .67963E-3
MEAN_MOTION_DOT = .6293E-4
MEAN_MOTION_DDOT = 0

CCSDS_OMM_VERS = 2.0
CREATION_DATE  = 
ORIGINATOR     = 

OBJECT_NAME    = TWILIGHT AC
OBJECT_ID      = 2026-004AC
CENTER_NAME    = EARTH
REF_FRAME      = TEME
TIME_SYSTEM    = UTC
MEAN_ELEMENT_THEORY = SGP/SGP4

EPOCH          = 2026-01-26T10:57:45.156960
MEAN_MOTION    = 15.17012896
ECCENTRICITY   = .0005252
INCLINATION    = 97.4569
RA_OF_ASC_NODE = 27.5868
ARG_OF_PERICENTER = 104.7310
MEAN_ANOMALY   = 255.4506

EPHEMERIS_TYPE = 0
CLASSIFICATION_TYPE = U
NORAD_CAT_ID   = 67389
ELEMENT_SET_NO = 999
REV_AT_EPOCH   = 225
BSTAR          = .43194E-3
MEAN_MOTION_DOT = .8478E-4
MEAN_MOTION_DDOT = 0

CCSDS_OMM_VERS = 2.0
CREATION_DATE  = 
ORIGINATOR     = 

OBJECT_NAME    = CONNECTA IOT-16
OBJECT_ID      = 2026-004AD
CENTER_NAME    = EARTH
REF_FRAME      = TEME
TIME_SYSTEM    = UTC
MEAN_ELEMENT_THEORY = SGP/SGP4

EPOCH          = 2026-01-26T10:57:02.762208
MEAN_MOTION    = 15.17027205
ECCENTRICITY   = .0005497
INCLINATION    = 97.4572
RA_OF_ASC_NODE = 27.5888
ARG_OF_PERICENTER = 102.7628
MEAN_ANOMALY   = 257.4220

EPHEMERIS_TYPE = 0
CLASSIFICATION_TYPE = U
NORAD_CAT_ID   = 67390
ELEMENT_SET_NO = 999
REV_AT_EPOCH   = 225
BSTAR          = .3851E-3
MEAN_MOTION_DOT = .7554E-4
MEAN_MOTION_DDOT = 0

CCSDS_OMM_VERS = 2.0
CREATION_DATE  = 
ORIGINATOR     = 

OBJECT_NAME    = TWILIGHT AE
OBJECT_ID      = 2026-004AE
CENTER_NAME    = EARTH
REF_FRAME      = TEME
TIME_SYSTEM    = UTC
MEAN_ELEMENT_THEORY = SGP/SGP4

EPOCH          = 2026-01-26T09:19:19.963200
MEAN_MOTION    = 15.17207136
ECCENTRICITY   = .0006844
INCLINATION    = 97.4522
RA_OF_ASC_NODE = 27.5163
ARG_OF_PERICENTER = 98.4548
MEAN_ANOMALY   = 261.7462

EPHEMERIS_TYPE = 0
CLASSIFICATION_TYPE = U
NORAD_CAT_ID   = 67391
ELEMENT_SET_NO = 999
REV_AT_EPOCH   = 224
BSTAR          = .7317E-3
MEAN_MOTION_DOT = .14503E-3
MEAN_MOTION_DDOT = 0

CCSDS_OMM_VERS = 2.0
CREATION_DATE  = 
ORIGINATOR     = 

OBJECT_NAME    = TWILIGHT AF
OBJECT_ID      = 2026-004AF
CENTER_NAME    = EARTH
REF_FRAME      = TEME
TIME_SYSTEM    = UTC
MEAN_ELEMENT_THEORY = SGP/SGP4

EPOCH          = 2026-01-26T10:51:19.212480
MEAN_MOTION    = 15.17911197
ECCENTRICITY   = .0007552
INCLINATION    = 97.4498
RA_OF_ASC_NODE = 27.5786
ARG_OF_PERICENTER = 102.2068
MEAN_ANOMALY   = 258.0012

EPHEMERIS_TYPE = 0
CLASSIFICATION_TYPE = U
NORAD_CAT_ID   = 67392
ELEMENT_SET_NO = 999
REV_AT_EPOCH   = 225
BSTAR          = .87528E-3
MEAN_MOTION_DOT = .17725E-3
MEAN_MOTION_DDOT = 0

CCSDS_OMM_VERS = 2.0
CREATION_DATE  = 
ORIGINATOR     = 

OBJECT_NAME    = TWILIGHT AG
OBJECT_ID      = 2026-004AG
CENTER_NAME    = EARTH
REF_FRAME      = TEME
TIME_SYSTEM    = UTC
MEAN_ELEMENT_THEORY = SGP/SGP4

EPOCH          = 2026-01-26T06:05:03.716736
MEAN_MOTION    = 15.17850740
ECCENTRICITY   = .00076482
INCLINATION    = 97.4527
RA_OF_ASC_NODE = 27.3923
ARG_OF_PERICENTER = 106.4472
MEAN_ANOMALY   = 253.7603

EPHEMERIS_TYPE = 0
CLASSIFICATION_TYPE = U
NORAD_CAT_ID   = 67393
ELEMENT_SET_NO = 999
REV_AT_EPOCH   = 222
BSTAR          = .8789446E-3
MEAN_MOTION_DOT = .17769E-3
MEAN_MOTION_DDOT = 0

